{"fetched_at":"2026-03-29T02:12:04Z","count":15717,"tles":[{"name":"STARLINK-30129","line1":"1 56689U 23067B   26087.29373227  .00000202  00000+0  30046-4 0  9990","line2":"2 56689  43.0021 173.7670 0001427 271.2580  88.8099 15.02537379158453","category":"Starlink"}]}